CCSDS_OMM_VERS = 2.0
CREATION_DATE  = 
ORIGINATOR     = 

OBJECT_NAME    = HULIANWANG DIGUI-138
OBJECT_ID      = 2026-007B
CENTER_NAME    = EARTH
REF_FRAME      = TEME
TIME_SYSTEM    = UTC
MEAN_ELEMENT_THEORY = SGP/SGP4

EPOCH          = 2026-01-30T08:52:57.682848
MEAN_MOTION    = 13.84663705
ECCENTRICITY   = .0000345
INCLINATION    = 50.0046
RA_OF_ASC_NODE = 227.9264
ARG_OF_PERICENTER = 209.0219
MEAN_ANOMALY   = 151.0658

EPHEMERIS_TYPE = 0
CLASSIFICATION_TYPE = U
NORAD_CAT_ID   = 67436
ELEMENT_SET_NO = 999
REV_AT_EPOCH   = 233
BSTAR          = .17853E-3
MEAN_MOTION_DOT = .58E-6
MEAN_MOTION_DDOT = 0

CCSDS_OMM_VERS = 2.0
CREATION_DATE  = 
ORIGINATOR     = 

OBJECT_NAME    = HULIANWANG DIGUI-139
OBJECT_ID      = 2026-007C
CENTER_NAME    = EARTH
REF_FRAME      = TEME
TIME_SYSTEM    = UTC
MEAN_ELEMENT_THEORY = SGP/SGP4

EPOCH          = 2026-01-30T08:49:52.433472
MEAN_MOTION    = 13.84899942
ECCENTRICITY   = .0000476
INCLINATION    = 50.0008
RA_OF_ASC_NODE = 227.9100
ARG_OF_PERICENTER = 293.1537
MEAN_ANOMALY   = 66.9309

EPHEMERIS_TYPE = 0
CLASSIFICATION_TYPE = U
NORAD_CAT_ID   = 67437
ELEMENT_SET_NO = 999
REV_AT_EPOCH   = 233
BSTAR          = .21079E-3
MEAN_MOTION_DOT = .95E-6
MEAN_MOTION_DDOT = 0

CCSDS_OMM_VERS = 2.0
CREATION_DATE  = 
ORIGINATOR     = 

OBJECT_NAME    = HULIANWANG DIGUI-140
OBJECT_ID      = 2026-007D
CENTER_NAME    = EARTH
REF_FRAME      = TEME
TIME_SYSTEM    = UTC
MEAN_ELEMENT_THEORY = SGP/SGP4

EPOCH          = 2026-01-30T08:56:12.134688
MEAN_MOTION    = 13.84503860
ECCENTRICITY   = .0000212
INCLINATION    = 50.0040
RA_OF_ASC_NODE = 227.9388
ARG_OF_PERICENTER = 300.6671
MEAN_ANOMALY   = 59.4205

EPHEMERIS_TYPE = 0
CLASSIFICATION_TYPE = U
NORAD_CAT_ID   = 67438
ELEMENT_SET_NO = 999
REV_AT_EPOCH   = 233
BSTAR          = .20376E-3
MEAN_MOTION_DOT = .86E-6
MEAN_MOTION_DDOT = 0

CCSDS_OMM_VERS = 2.0
CREATION_DATE  = 
ORIGINATOR     = 

OBJECT_NAME    = HULIANWANG DIGUI-141
OBJECT_ID      = 2026-007E
CENTER_NAME    = EARTH
REF_FRAME      = TEME
TIME_SYSTEM    = UTC
MEAN_ELEMENT_THEORY = SGP/SGP4

EPOCH          = 2026-01-30T08:44:11.369472
MEAN_MOTION    = 13.85302041
ECCENTRICITY   = .0000952
INCLINATION    = 50.0044
RA_OF_ASC_NODE = 227.8900
ARG_OF_PERICENTER = 204.2628
MEAN_ANOMALY   = 155.8223

EPHEMERIS_TYPE = 0
CLASSIFICATION_TYPE = U
NORAD_CAT_ID   = 67439
ELEMENT_SET_NO = 999
REV_AT_EPOCH   = 233
BSTAR          = .18313E-3
MEAN_MOTION_DOT = .65E-6
MEAN_MOTION_DDOT = 0

CCSDS_OMM_VERS = 2.0
CREATION_DATE  = 
ORIGINATOR     = 

OBJECT_NAME    = HULIANWANG DIGUI-142
OBJECT_ID      = 2026-007F
CENTER_NAME    = EARTH
REF_FRAME      = TEME
TIME_SYSTEM    = UTC
MEAN_ELEMENT_THEORY = SGP/SGP4

EPOCH          = 2026-01-30T01:45:12.455712
MEAN_MOTION    = 13.85452628
ECCENTRICITY   = .0000348
INCLINATION    = 50.0111
RA_OF_ASC_NODE = 229.0361
ARG_OF_PERICENTER = 271.7585
MEAN_ANOMALY   = 88.3272

EPHEMERIS_TYPE = 0
CLASSIFICATION_TYPE = U
NORAD_CAT_ID   = 67440
ELEMENT_SET_NO = 999
REV_AT_EPOCH   = 229
BSTAR          = .29951E-4
MEAN_MOTION_DOT = -.11E-5
MEAN_MOTION_DDOT = 0

CCSDS_OMM_VERS = 2.0
CREATION_DATE  = 
ORIGINATOR     = 

OBJECT_NAME    = HULIANWANG DIGUI-143
OBJECT_ID      = 2026-007G
CENTER_NAME    = EARTH
REF_FRAME      = TEME
TIME_SYSTEM    = UTC
MEAN_ELEMENT_THEORY = SGP/SGP4

EPOCH          = 2026-01-30T01:42:09.513216
MEAN_MOTION    = 13.85664466
ECCENTRICITY   = .0000183
INCLINATION    = 50.0093
RA_OF_ASC_NODE = 229.0199
ARG_OF_PERICENTER = 241.5963
MEAN_ANOMALY   = 118.4915

EPHEMERIS_TYPE = 0
CLASSIFICATION_TYPE = U
NORAD_CAT_ID   = 67441
ELEMENT_SET_NO = 999
REV_AT_EPOCH   = 229
BSTAR          = .18325E-3
MEAN_MOTION_DOT = .66E-6
MEAN_MOTION_DDOT = 0

CCSDS_OMM_VERS = 2.0
CREATION_DATE  = 
ORIGINATOR     = 

OBJECT_NAME    = HULIANWANG DIGUI-144
OBJECT_ID      = 2026-007H
CENTER_NAME    = EARTH
REF_FRAME      = TEME
TIME_SYSTEM    = UTC
MEAN_ELEMENT_THEORY = SGP/SGP4

EPOCH          = 2026-01-30T01:39:13.449024
MEAN_MOTION    = 13.85818189
ECCENTRICITY   = .0000215
INCLINATION    = 50.0078
RA_OF_ASC_NODE = 229.0085
ARG_OF_PERICENTER = 307.9730
MEAN_ANOMALY   = 52.1148

EPHEMERIS_TYPE = 0
CLASSIFICATION_TYPE = U
NORAD_CAT_ID   = 67442
ELEMENT_SET_NO = 999
REV_AT_EPOCH   = 229
BSTAR          = .16764E-3
MEAN_MOTION_DOT = .49E-6
MEAN_MOTION_DDOT = 0

CCSDS_OMM_VERS = 2.0
CREATION_DATE  = 
ORIGINATOR     = 

OBJECT_NAME    = HULIANWANG DIGUI-145
OBJECT_ID      = 2026-007J
CENTER_NAME    = EARTH
REF_FRAME      = TEME
TIME_SYSTEM    = UTC
MEAN_ELEMENT_THEORY = SGP/SGP4

EPOCH          = 2026-01-29T23:51:32.845824
MEAN_MOTION    = 13.85980441
ECCENTRICITY   = .000046
INCLINATION    = 50.0062
RA_OF_ASC_NODE = 229.2807
ARG_OF_PERICENTER = 10.2120
MEAN_ANOMALY   = 349.8786

EPHEMERIS_TYPE = 0
CLASSIFICATION_TYPE = U
NORAD_CAT_ID   = 67443
ELEMENT_SET_NO = 999
REV_AT_EPOCH   = 228
BSTAR          = .19027E-3
MEAN_MOTION_DOT = .75E-6
MEAN_MOTION_DDOT = 0

CCSDS_OMM_VERS = 2.0
CREATION_DATE  = 
ORIGINATOR     = 

OBJECT_NAME    = CZ-8A R/B
OBJECT_ID      = 2026-007K
CENTER_NAME    = EARTH
REF_FRAME      = TEME
TIME_SYSTEM    = UTC
MEAN_ELEMENT_THEORY = SGP/SGP4

EPOCH          = 2026-01-30T12:20:07.224000
MEAN_MOTION    = 14.13550404
ECCENTRICITY   = .0092171
INCLINATION    = 50.0084
RA_OF_ASC_NODE = 224.6689
ARG_OF_PERICENTER = 140.9387
MEAN_ANOMALY   = 219.8224

EPHEMERIS_TYPE = 0
CLASSIFICATION_TYPE = U
NORAD_CAT_ID   = 67444
ELEMENT_SET_NO = 999
REV_AT_EPOCH   = 238
BSTAR          = .6664E-4
MEAN_MOTION_DOT = -.24E-6
MEAN_MOTION_DDOT = 0

CCSDS_OMM_VERS = 2.0
CREATION_DATE  = 
ORIGINATOR     = 

OBJECT_NAME    = STARLINK-36542
OBJECT_ID      = 2026-008A
CENTER_NAME    = EARTH
REF_FRAME      = TEME
TIME_SYSTEM    = UTC
MEAN_ELEMENT_THEORY = SGP/SGP4

EPOCH          = 2026-01-30T12:00:02.998944
MEAN_MOTION    = 15.78132102
ECCENTRICITY   = .0001445
INCLINATION    = 43.0007
RA_OF_ASC_NODE = 65.2748
ARG_OF_PERICENTER = 279.3132
MEAN_ANOMALY   = 8.1802

EPHEMERIS_TYPE = 0
CLASSIFICATION_TYPE = U
NORAD_CAT_ID   = 67445
ELEMENT_SET_NO = 999
REV_AT_EPOCH   = 365
BSTAR          = -.81958E-2
MEAN_MOTION_DOT = -.1295217E-1
MEAN_MOTION_DDOT = 0

CCSDS_OMM_VERS = 2.0
CREATION_DATE  = 
ORIGINATOR     = 

OBJECT_NAME    = STARLINK-36539
OBJECT_ID      = 2026-008B
CENTER_NAME    = EARTH
REF_FRAME      = TEME
TIME_SYSTEM    = UTC
MEAN_ELEMENT_THEORY = SGP/SGP4

EPOCH          = 2026-01-30T12:00:02.998944
MEAN_MOTION    = 15.78034176
ECCENTRICITY   = .0001442
INCLINATION    = 43.0006
RA_OF_ASC_NODE = 65.2690
ARG_OF_PERICENTER = 276.3914
MEAN_ANOMALY   = 13.4235

EPHEMERIS_TYPE = 0
CLASSIFICATION_TYPE = U
NORAD_CAT_ID   = 67446
ELEMENT_SET_NO = 999
REV_AT_EPOCH   = 365
BSTAR          = -.82333E-2
MEAN_MOTION_DOT = -.1295354E-1
MEAN_MOTION_DDOT = 0

CCSDS_OMM_VERS = 2.0
CREATION_DATE  = 
ORIGINATOR     = 

OBJECT_NAME    = STARLINK-36440
OBJECT_ID      = 2026-008C
CENTER_NAME    = EARTH
REF_FRAME      = TEME
TIME_SYSTEM    = UTC
MEAN_ELEMENT_THEORY = SGP/SGP4

EPOCH          = 2026-01-30T12:00:02.998944
MEAN_MOTION    = 15.77925435
ECCENTRICITY   = .000131
INCLINATION    = 43.0007
RA_OF_ASC_NODE = 65.2631
ARG_OF_PERICENTER = 276.9373
MEAN_ANOMALY   = 15.2631

EPHEMERIS_TYPE = 0
CLASSIFICATION_TYPE = U
NORAD_CAT_ID   = 67447
ELEMENT_SET_NO = 999
REV_AT_EPOCH   = 365
BSTAR          = -.84147E-2
MEAN_MOTION_DOT = -.1315014E-1
MEAN_MOTION_DDOT = 0

