HULIANWANG DIGUI-138    
1 67436U 26007B   26030.37011207  .00000058  00000+0  17853-3 0  9992
2 67436  50.0046 227.9264 0000345 209.0219 151.0658 13.84663705  2337
HULIANWANG DIGUI-139    
1 67437U 26007C   26030.36796798  .00000095  00000+0  21079-3 0  9993
2 67437  50.0008 227.9100 0000476 293.1537  66.9309 13.84899942  2338
HULIANWANG DIGUI-140    
1 67438U 26007D   26030.37236267  .00000086  00000+0  20376-3 0  9994
2 67438  50.0040 227.9388 0000212 300.6671  59.4205 13.84503860  2337
HULIANWANG DIGUI-141    
1 67439U 26007E   26030.36402048  .00000065  00000+0  18313-3 0  9991
2 67439  50.0044 227.8900 0000952 204.2628 155.8223 13.85302041  2333
HULIANWANG DIGUI-142    
1 67440U 26007F   26030.07306083 -.00000110  00000+0  29951-4 0  9996
2 67440  50.0111 229.0361 0000348 271.7585  88.3272 13.85452628  2291
HULIANWANG DIGUI-143    
1 67441U 26007G   26030.07094344  .00000066  00000+0  18325-3 0  9992
2 67441  50.0093 229.0199 0000183 241.5963 118.4915 13.85664466  2296
HULIANWANG DIGUI-144    
1 67442U 26007H   26030.06890566  .00000049  00000+0  16764-3 0  9998
2 67442  50.0078 229.0085 0000215 307.9730  52.1148 13.85818189  2294
HULIANWANG DIGUI-145    
1 67443U 26007J   26029.99413016  .00000075  00000+0  19027-3 0  9994
2 67443  50.0062 229.2807 0000460  10.2120 349.8786 13.85980441  2285
CZ-8A R/B               
1 67444U 26007K   26030.51397250 -.00000024  00000+0  66640-4 0  9995
2 67444  50.0084 224.6689 0092171 140.9387 219.8224 14.13550404  2381
STARLINK-36542          
1 67445U 26008A   26030.50003471 -.01295217  00000+0 -81958-2 0  9994
2 67445  43.0007  65.2748 0001445 279.3132   8.1802 15.78132102  3658
STARLINK-36539          
1 67446U 26008B   26030.50003471 -.01295354  00000+0 -82333-2 0  9995
2 67446  43.0006  65.2690 0001442 276.3914  13.4235 15.78034176  3657
STARLINK-36440          
1 67447U 26008C   26030.50003471 -.01315014  00000+0 -84147-2 0  9997
2 67447  43.0007  65.2631 0001310 276.9373  15.2631 15.77925435  3659
